IRIDIUM 33 DEB          
1 35620U 97051QS  26064.76742037  .00010264  00000+0  29057-2 0  9999
2 35620  86.3913 182.3886 0130691 344.0446  15.6652 14.40556949611605
IRIDIUM 33 DEB          
1 35622U 97051QU  26064.90480719  .00044806  00000+0  24667-2 0  9994
2 35622  86.1937 222.2680 0006553 314.8048 197.1777 15.13827606886148
IRIDIUM 33 DEB          
1 35628U 97051RA  26064.51258235  .00009310  00000+0  15761-2 0  9999
2 35628  86.3602 332.1291 0014026  50.4154 309.8297 14.69158982876613
IRIDIUM 33 DEB          
1 35631U 97051RD  26064.23528819  .00001855  00000+0  49775-3 0  9999
2 35631  86.3720 345.4578 0015579 199.7119 312.3923 14.47619055883909
IRIDIUM 33 DEB          
1 35680U 97051RJ  26062.56771014  .00010642  00000+0  42353-2 0  9992
2 35680  86.1052 345.7068 0154844  22.2182  95.9581 14.22211774618498
IRIDIUM 33 DEB          
1 35744U 97051RX  26064.34506754  .00007482  00000+0  11760-2 0  9994
2 35744  86.3251 288.0761 0018820 275.6994  84.2077 14.72342041885460
IRIDIUM 33 DEB          
1 35797U 97051SF  26064.37394508  .00015202  00000+0  17513-2 0  9998
2 35797  86.3327 291.9267 0009999 227.1646 132.8739 14.85589234885667
IRIDIUM 33 DEB          
1 35806U 97051SQ  26063.06192268  .00007337  00000+0  15765-2 0  9990
2 35806  86.3464 344.7915 0014150 141.1989 219.0239 14.58406620875093
IRIDIUM 33 DEB          
1 35809U 97051ST  26061.41166348  .00010902  00000+0  15133-2 0  9991
2 35809  86.3258 299.0145 0011940 341.4382  18.6400 14.77775546879836
IRIDIUM 33 DEB          
1 35846U 97051SW  26065.30794006  .00003066  00000+0  89912-3 0  9992
2 35846  86.3784  23.1548 0015391 259.2944 100.6524 14.43542666725341
IRIDIUM 33 DEB          
1 35848U 97051SY  26064.02850151  .00015922  00000+0  20452-2 0  9993
2 35848  86.3931 339.0580 0005291 297.2212  62.8470 14.81095014679079
IRIDIUM 33 DEB          
1 35850U 97051TA  26063.95575906  .00013460  00000+0  17235-2 0  9999
2 35850  86.3508 306.7887 0007616 284.6052  75.4325 14.81217971725730
IRIDIUM 33 DEB          
1 35915U 97051TY  26064.93059460  .00012958  00000+0  15700-2 0  9998
2 35915  86.3430 304.8689 0008847 276.3191  83.7024 14.83514112 93188
IRIDIUM 33 DEB          
1 35918U 97051UB  26065.21104229  .00005314  00000+0  13049-2 0  9999
2 35918  86.4015  39.9460 0023352 251.9311 168.2014 14.52050989864182
IRIDIUM 33 DEB          
1 35929U 97051UN  26063.30489908  .00059943  00000+0  37251-2 0  9997
2 35929  86.3396 273.7871 0015419  83.8088 276.4906 15.09298145890077
IRIDIUM 33 DEB          
1 36011U 97051US  26065.09456341  .00002054  00000+0  62398-3 0  9995
2 36011  86.3459 359.6192 0017182 313.2326 105.7397 14.41658258657411
